ONEWEB-0431             
1 51630U 22012J   23237.56640278 -.00000381  00000+0 -11270-2 0  9993
2 51630  87.8807 240.1344 0002788  93.4658 266.6789 13.10367621 74895
ONEWEB-0434             
1 51631U 22012K   23237.56005835 -.00000705  00000+0 -20548-2 0  9996
2 51631  87.8803 240.1543 0001684  94.8735 265.2584 13.10373177 74877
ONEWEB-0435             
1 51632U 22012L   23237.56959444 -.00000516  00000+0 -15145-2 0  9998
2 51632  87.8806 240.1424 0002335 102.9980 257.1408 13.10370394 74868
ONEWEB-0436             
1 51633U 22012M   23237.85954107  .00000150  00000+0  35362-3 0  9998
2 51633  87.9137 209.8137 0002241  78.1162 282.0220 13.17655066 79810
ONEWEB-0438             
1 51634U 22012N   23237.55209096  .00000336  00000+0  92588-3 0  9995
2 51634  87.8805 240.1461 0001805  89.6210 270.5124 13.10370302 76188
ONEWEB-0439             
1 51635U 22012P   23237.55526907  .00000211  00000+0  56886-3 0  9992
2 51635  87.8805 240.1275 0001970  90.5211 269.6142 13.10370663 74870
ONEWEB-0442             
1 51636U 22012Q   23237.47140607 -.00000013  00000+0 -65355-4 0  9997
2 51636  87.9188 209.8736 0002000  59.9535 300.1794 13.17650907 78465
ONEWEB-0443             
1 51637U 22012R   23237.79414595 -.00000016  00000+0 -74875-4 0  9993
2 51637  87.9188 209.8151 0001868 102.3188 257.8153 13.17644752 79846
